[{"OBJECT_NAME":"OBJECT B","OBJECT_ID":"2021-091B","EPOCH":"2026-03-09T22:30:24.924672","MEAN_MOTION":15.17988278,"ECCENTRICITY":0.00142689,"INCLINATION":97.448,"RA_OF_ASC_NODE":258.0458,"ARG_OF_PERICENTER":31.6297,"MEAN_ANOMALY":328.5792,"EPHEMERIS_TYPE":0,"CLASSIFICATION_TYPE":"U","NORAD_CAT_ID":49316,"ELEMENT_SET_NO":999,"REV_AT_EPOCH":24392,"BSTAR":0.00037182994,"MEAN_MOTION_DOT":7.511e-5,"MEAN_MOTION_DDOT":0},{"OBJECT_NAME":"STARLINK-5376","OBJECT_ID":"2023-046BC","EPOCH":"2026-03-09T22:00:01.999584","MEAN_MOTION":15.13074474,"ECCENTRICITY":0.00020856,"INCLINATION":43.0003,"RA_OF_ASC_NODE":144.1718,"ARG_OF_PERICENTER":273.2498,"MEAN_ANOMALY":52.6444,"EPHEMERIS_TYPE":0,"CLASSIFICATION_TYPE":"U","NORAD_CAT_ID":56142,"ELEMENT_SET_NO":999,"REV_AT_EPOCH":567,"BSTAR":0.00041642388,"MEAN_MOTION_DOT":7.28e-5,"MEAN_MOTION_DDOT":0}]
